[{"OBJECT_NAME":"VSP ROSE","OBJECT_ID":"2024-043AC","EPOCH":"2026-03-09T21:48:06.922944","MEAN_MOTION":15.27746075,"ECCENTRICITY":0.00099339,"INCLINATION":97.5443,"RA_OF_ASC_NODE":203.927,"ARG_OF_PERICENTER":232.2702,"MEAN_ANOMALY":127.7637,"EPHEMERIS_TYPE":0,"CLASSIFICATION_TYPE":"U","NORAD_CAT_ID":59124,"ELEMENT_SET_NO":999,"REV_AT_EPOCH":11182,"BSTAR":0.00025731354,"MEAN_MOTION_DOT":6.907e-5,"MEAN_MOTION_DDOT":0},{"OBJECT_NAME":"STARLINK-34471","OBJECT_ID":"2025-144R","EPOCH":"2026-03-09T13:58:11.140032","MEAN_MOTION":15.30191669,"ECCENTRICITY":0.000114,"INCLINATION":53.1592,"RA_OF_ASC_NODE":181.6625,"ARG_OF_PERICENTER":90.6448,"MEAN_ANOMALY":269.4684,"EPHEMERIS_TYPE":0,"CLASSIFICATION_TYPE":"U","NORAD_CAT_ID":64739,"ELEMENT_SET_NO":999,"REV_AT_EPOCH":3963,"BSTAR":0.00060055,"MEAN_MOTION_DOT":0.00017465,"MEAN_MOTION_DDOT":0}]
